<?xml version="1.0" encoding="UTF-8"?>
<kml xmlns="http://www.opengis.net/kml/2.2"><Document>
<name>Madera 2026 — plan rodzinny</name>
<description>19–30 sierpnia 2026. Wygenerowane z madeira-interactive.vercel.app. Warstwy odpowiadają dniom planu.</description>
<Style id="logistyka"><IconStyle><color>ff0000ff</color><Icon><href>http://maps.google.com/mapfiles/kml/pushpin/wht-pushpin.png</href></Icon></IconStyle><LineStyle><color>ff0000ff</color><width>4</width></LineStyle></Style>
<Style id="d21"><IconStyle><color>ff20a5da</color><Icon><href>http://maps.google.com/mapfiles/kml/pushpin/wht-pushpin.png</href></Icon></IconStyle><LineStyle><color>ff20a5da</color><width>4</width></LineStyle></Style>
<Style id="d22"><IconStyle><color>ff2f8b57</color><Icon><href>http://maps.google.com/mapfiles/kml/pushpin/wht-pushpin.png</href></Icon></IconStyle><LineStyle><color>ff2f8b57</color><width>4</width></LineStyle></Style>
<Style id="d23"><IconStyle><color>ffd4a017</color><Icon><href>http://maps.google.com/mapfiles/kml/pushpin/wht-pushpin.png</href></Icon></IconStyle><LineStyle><color>ffd4a017</color><width>4</width></LineStyle></Style>
<Style id="d24"><IconStyle><color>ffcc6600</color><Icon><href>http://maps.google.com/mapfiles/kml/pushpin/wht-pushpin.png</href></Icon></IconStyle><LineStyle><color>ffcc6600</color><width>4</width></LineStyle></Style>
<Style id="d25"><IconStyle><color>ffd4a017</color><Icon><href>http://maps.google.com/mapfiles/kml/pushpin/wht-pushpin.png</href></Icon></IconStyle><LineStyle><color>ffd4a017</color><width>4</width></LineStyle></Style>
<Style id="d26"><IconStyle><color>ff8b3fa0</color><Icon><href>http://maps.google.com/mapfiles/kml/pushpin/wht-pushpin.png</href></Icon></IconStyle><LineStyle><color>ff8b3fa0</color><width>4</width></LineStyle></Style>
<Style id="d27"><IconStyle><color>ff1e88e5</color><Icon><href>http://maps.google.com/mapfiles/kml/pushpin/wht-pushpin.png</href></Icon></IconStyle><LineStyle><color>ff1e88e5</color><width>4</width></LineStyle></Style>
<Style id="d28"><IconStyle><color>ffb35c00</color><Icon><href>http://maps.google.com/mapfiles/kml/pushpin/wht-pushpin.png</href></Icon></IconStyle><LineStyle><color>ffb35c00</color><width>4</width></LineStyle></Style>
<Style id="d29"><IconStyle><color>ff607d8b</color><Icon><href>http://maps.google.com/mapfiles/kml/pushpin/wht-pushpin.png</href></Icon></IconStyle><LineStyle><color>ff607d8b</color><width>4</width></LineStyle></Style>
<Style id="food"><IconStyle><color>ff2b7cff</color><Icon><href>http://maps.google.com/mapfiles/kml/pushpin/wht-pushpin.png</href></Icon></IconStyle><LineStyle><color>ff2b7cff</color><width>4</width></LineStyle></Style>
  <Folder><name>1 · Dojazd, noclegi i powrót</name>
    <Placemark><name>Parking APCOA P7/8 — BER</name><description><![CDATA[Rezerwacja 8320774 · tablica EL2GE01<br>Wjazd 19.08 16:00 (okno 14:00–18:00), wyjazd 30.08 18:00<br>144 € zapłacone. Nie ciągnąć biletu — kamera czyta tablicę.<br>Brunolf-Baade-Straße 1/2, 12529 Schönefeld]]></description><styleUrl>#logistyka</styleUrl><Point><coordinates>13.5108134,52.3662788,0</coordinates></Point></Placemark>

    <Placemark><name>IntercityHotel Berlin Airport BER</name><description><![CDATA[Nocleg 19→20.08 · 2 × Business Twin<br>Potwierdzenia 4RGPYJYD i 4GMN9X9N<br>Bez śniadania. City Ticket na komunikację w cenie.<br>Zameldowanie od 15:00, wymeldowanie do 12:00<br>tel. +49 30 536 531 0]]></description><styleUrl>#logistyka</styleUrl><Point><coordinates>13.5125954,52.3642062,0</coordinates></Point></Placemark>

    <Placemark><name>Hotel Baía Azul — Funchal</name><description><![CDATA[Baza na 20–30.08<br>Rua da Quinta Calaça 1, São Martinho<br>tel. +351 291 700 400<br>Śniadanie 7:30–10:00 · z hotelu wychodzimy standardowo 10:15]]></description><styleUrl>#logistyka</styleUrl><Point><coordinates>-16.9397986,32.6363065,0</coordinates></Point></Placemark>

    <Placemark><name>Przylot 20.08: Lotnisko BER</name><description><![CDATA[<b>20 sierpnia · czwartek · Berlin BER → Funchal</b><br>Lot, prywatny transfer, Hotel Baía Azul i pierwsze spotkanie z oceanem.]]></description><styleUrl>#logistyka</styleUrl><Point><coordinates>13.5033,52.3667,0</coordinates></Point></Placemark>

    <Placemark><name>Przylot 20.08: Lotnisko FNC</name><description><![CDATA[<b>20 sierpnia · czwartek · Berlin BER → Funchal</b><br>Lot, prywatny transfer, Hotel Baía Azul i pierwsze spotkanie z oceanem.]]></description><styleUrl>#logistyka</styleUrl><Point><coordinates>-16.7745,32.6979,0</coordinates></Point></Placemark>

    <Placemark><name>Przylot 20.08: Hotel Baía Azul</name><description><![CDATA[<b>20 sierpnia · czwartek · Berlin BER → Funchal</b><br>Lot, prywatny transfer, Hotel Baía Azul i pierwsze spotkanie z oceanem.<hr><b>04:45</b> — Pobudka i wyjście z hotelu<br>Hotel stoi przy terminalu, więc do odprawy idziemy kilka minut — nie trzeba wstawać wcześniej ani zamawiać transferu.<br><br><b>05:00</b> — Odprawa na BER<br>Terminal 1–2 tuż obok hotelu; bagaże, odprawa i kontrola bez pośpiechu, około 2 h przed wylotem. Śniadanie jemy dopiero po kontroli — w hotelu nie mamy go w rezerwacji.]]></description><styleUrl>#logistyka</styleUrl><Point><coordinates>-16.9353,32.6384,0</coordinates></Point></Placemark>

    <Placemark><name>Przylot 20.08: Lido</name><description><![CDATA[<b>20 sierpnia · czwartek · Berlin BER → Funchal</b><br>Lot, prywatny transfer, Hotel Baía Azul i pierwsze spotkanie z oceanem.<hr><b>17:00</b> — Lido lub promenada<br>Krótki spacer tylko jeśli grupa ma energię.]]></description><styleUrl>#logistyka</styleUrl><Point><coordinates>-16.9332,32.6386,0</coordinates></Point></Placemark>

    <Placemark><name>Powrót 30.08: Hotel Baía Azul</name><description><![CDATA[<b>30 sierpnia · niedziela · Powrót do Łodzi</b><br>Hotel, FNC, lot do Berlina, odbiór auta i ostatni odcinek.<hr><b>rano</b> — Checklista hotelowa<br>Dokumenty, ładowarki, leki, stroje kąpielowe i sejf.<br><br><b>07:30</b> — Śniadanie w hotelu<br>Bufet rusza o 7:30 — zjeść przed transferem ok. 8:30.]]></description><styleUrl>#logistyka</styleUrl><Point><coordinates>-16.9353,32.6384,0</coordinates></Point></Placemark>

    <Placemark><name>Powrót 30.08: Lotnisko FNC</name><description><![CDATA[<b>30 sierpnia · niedziela · Powrót do Łodzi</b><br>Hotel, FNC, lot do Berlina, odbiór auta i ostatni odcinek.<hr><b>08:30</b> — Prywatny transfer<br>Transfer z madeira-in na lotnisko FNC; odbiór z hotelu ok. 08:30 pod wylot 11:35.]]></description><styleUrl>#logistyka</styleUrl><Point><coordinates>-16.7745,32.6979,0</coordinates></Point></Placemark>

    <Placemark><name>Powrót 30.08: Lotnisko BER</name><description><![CDATA[<b>30 sierpnia · niedziela · Powrót do Łodzi</b><br>Hotel, FNC, lot do Berlina, odbiór auta i ostatni odcinek.<hr><b>08:30</b> — Prywatny transfer<br>Transfer z madeira-in na lotnisko FNC; odbiór z hotelu ok. 08:30 pod wylot 11:35.]]></description><styleUrl>#logistyka</styleUrl><Point><coordinates>13.5033,52.3667,0</coordinates></Point></Placemark>

    <Placemark><name>Powrót 30.08: Parking P7/8</name><description><![CDATA[<b>30 sierpnia · niedziela · Powrót do Łodzi</b><br>Hotel, FNC, lot do Berlina, odbiór auta i ostatni odcinek.<hr><b>17:10</b> — Lądowanie w Berlinie (BER)<br>Odbiór auta z P7/8 — parking jest 2–4 min od terminala. Wyjazd mamy opłacony do 18:00; jeśli bagaże pójdą wolno, różnicę dopłaca się w automacie (potrzebny bilet z wjazdu).]]></description><styleUrl>#logistyka</styleUrl><Point><coordinates>13.5071,52.3664,0</coordinates></Point></Placemark>

    <Placemark><name>Powrót 30.08: Łódź</name><description><![CDATA[<b>30 sierpnia · niedziela · Powrót do Łodzi</b><br>Hotel, FNC, lot do Berlina, odbiór auta i ostatni odcinek.<hr><b>wieczór</b> — Berlin → Łódź<br>Ostatni odcinek autem; regularne przerwy i zmiana kierowcy, jeśli to możliwe — do Łodzi docieramy późnym wieczorem.]]></description><styleUrl>#logistyka</styleUrl><Point><coordinates>19.456,51.7592,0</coordinates></Point></Placemark>

  </Folder>
  <Folder><name>2 · 21.08 Funchal i CR7</name>
    <Placemark><name>Hotel Baía Azul</name><description><![CDATA[<b>21 sierpnia · piątek · Funchal i CR7</b><br>Marina, muzeum CR7 i stare miasto Funchal.<hr><b>08:00</b> — Śniadanie w hotelu<br>Bufet śniadaniowy w hotelu, zwykle 7:30–10:00 (godziny potwierdzić w recepcji).<br><br><b>15:00</b> — Hotel, basen lub Lido<br>Reszta dnia bez sztywnego harmonogramu.]]></description><styleUrl>#d21</styleUrl><Point><coordinates>-16.9353,32.6384,0</coordinates></Point></Placemark>

    <Placemark><name>Muzeum CR7</name><description><![CDATA[<b>21 sierpnia · piątek · Funchal i CR7</b><br>Marina, muzeum CR7 i stare miasto Funchal.<hr><b>11:00</b> — Muzeum CR7<br>Krótka, konkretna atrakcja; bilety sprawdzić przed wyjściem.]]></description><styleUrl>#d21</styleUrl><Point><coordinates>-16.9148,32.6443,0</coordinates></Point></Placemark>

    <Placemark><name>Marina</name><description><![CDATA[<b>21 sierpnia · piątek · Funchal i CR7</b><br>Marina, muzeum CR7 i stare miasto Funchal.<hr><b>10:15</b> — Centrum i marina<br>Spokojny start przy nabrzeżu i widok na port.]]></description><styleUrl>#d21</styleUrl><Point><coordinates>-16.9096,32.6454,0</coordinates></Point></Placemark>

    <Placemark><name>Stare miasto</name><description><![CDATA[<b>21 sierpnia · piątek · Funchal i CR7</b><br>Marina, muzeum CR7 i stare miasto Funchal.<hr><b>12:15</b> — Stare miasto<br>Rua de Santa Maria i lunch w wygodnym miejscu.]]></description><styleUrl>#d21</styleUrl><Point><coordinates>-16.9033,32.6484,0</coordinates></Point></Placemark>

    <Placemark><name>Hotel</name><description><![CDATA[<b>21 sierpnia · piątek · Funchal i CR7</b><br>Marina, muzeum CR7 i stare miasto Funchal.<hr><b>08:00</b> — Śniadanie w hotelu<br>Bufet śniadaniowy w hotelu, zwykle 7:30–10:00 (godziny potwierdzić w recepcji).<br><br><b>15:00</b> — Hotel, basen lub Lido<br>Reszta dnia bez sztywnego harmonogramu.]]></description><styleUrl>#d21</styleUrl><Point><coordinates>-16.9353,32.6384,0</coordinates></Point></Placemark>

    <Placemark><name>Trasa 21 sierpnia · piątek</name><styleUrl>#d21</styleUrl><LineString><tessellate>1</tessellate><coordinates>-16.9353,32.6384,0 -16.9148,32.6443,0 -16.9096,32.6454,0 -16.9033,32.6484,0 -16.9353,32.6384,0</coordinates></LineString></Placemark>

  </Folder>
  <Folder><name>3 · 22.08 Pico Ruivo i wschód</name>
    <Placemark><name>Hotel</name><description><![CDATA[<b>22 sierpnia · sobota · Pico Ruivo i wschód wyspy</b><br>Wejście na najwyższy szczyt Madery (PR1.2), Santana i levada na Balcões.<hr><b>08:15</b> — Śniadanie w hotelu<br>Bufet 7:30–10:00 — dziś bez pobudki o świcie, spokojne śniadanie przed wyjściem (godziny potwierdzić w recepcji).<br><br><b>10:15</b> — Wyjazd z hotelu<br>Mercedes Sprinter madeira-in; przejazd na płaskowyż przez Santanę, ok. godziny drogi. Rekomendowana godzina wyjazdu: ok. 08:30 dla chętnych na czystsze niebo na szczycie — cała agenda przesuwa się wtedy o ~1,5 h wcześniej (chmury narastają w ciągu dnia).]]></description><styleUrl>#d22</styleUrl><Point><coordinates>-16.9353,32.6384,0</coordinates></Point></Placemark>

    <Placemark><name>Achada do Teixeira — start PR1.2</name><description><![CDATA[<b>22 sierpnia · sobota · Pico Ruivo i wschód wyspy</b><br>Wejście na najwyższy szczyt Madery (PR1.2), Santana i levada na Balcões.<hr><b>11:30</b> — Achada do Teixeira<br>Start szlaku PR1.2 na wysokości ~1590 m; przy parkingu skalna formacja 'Homem em Pé' (Stojący Człowiek).]]></description><styleUrl>#d22</styleUrl><Point><coordinates>-16.911,32.7573,0</coordinates></Point></Placemark>

    <Placemark><name>Pico Ruivo (1862 m)</name><description><![CDATA[<b>22 sierpnia · sobota · Pico Ruivo i wschód wyspy</b><br>Wejście na najwyższy szczyt Madery (PR1.2), Santana i levada na Balcões.<hr><b>11:45</b> — PR1.2 na Pico Ruivo<br>Najłatwiejsza droga na najwyższy szczyt wyspy (1862 m): ~2,8 km w jedną stronę szeroką, kamienną ścieżką ze schodami, ~260 m podejścia. Idziemy w dzień, spokojnie, z przerwami, plus czas na szczycie i zdjęcia.]]></description><styleUrl>#d22</styleUrl><Point><coordinates>-16.9419,32.7583,0</coordinates></Point></Placemark>

    <Placemark><name>Santana</name><description><![CDATA[<b>22 sierpnia · sobota · Pico Ruivo i wschód wyspy</b><br>Wejście na najwyższy szczyt Madery (PR1.2), Santana i levada na Balcões.<hr><b>14:15</b> — Santana i lunch<br>Zjazd do Santany: tradycyjne trójkątne domki 'palheiros' i spokojny lunch po zejściu. Restauracja Quinta do Furão (ta z odcinka Makłowicza) stoi na klifie wśród winnic tuż obok — warto zadzwonić rano i zarezerwować stolik.]]></description><styleUrl>#d22</styleUrl><Point><coordinates>-16.8819,32.8036,0</coordinates></Point></Placemark>

    <Placemark><name>Ribeiro Frio</name><description><![CDATA[<b>22 sierpnia · sobota · Pico Ruivo i wschód wyspy</b><br>Wejście na najwyższy szczyt Madery (PR1.2), Santana i levada na Balcões.<hr><b>15:45</b> — Ribeiro Frio i Balcões<br>W drodze powrotnej łatwa levada do tarasu Balcões (ok. 1,5 km w obie strony) i pstrąg w Ribeiro Frio.]]></description><styleUrl>#d22</styleUrl><Point><coordinates>-16.8865,32.7353,0</coordinates></Point></Placemark>

    <Placemark><name>Balcões</name><description><![CDATA[<b>22 sierpnia · sobota · Pico Ruivo i wschód wyspy</b><br>Wejście na najwyższy szczyt Madery (PR1.2), Santana i levada na Balcões.<hr><b>15:45</b> — Ribeiro Frio i Balcões<br>W drodze powrotnej łatwa levada do tarasu Balcões (ok. 1,5 km w obie strony) i pstrąg w Ribeiro Frio.]]></description><styleUrl>#d22</styleUrl><Point><coordinates>-16.8905,32.7419,0</coordinates></Point></Placemark>

    <Placemark><name>Hotel</name><description><![CDATA[<b>22 sierpnia · sobota · Pico Ruivo i wschód wyspy</b><br>Wejście na najwyższy szczyt Madery (PR1.2), Santana i levada na Balcões.<hr><b>08:15</b> — Śniadanie w hotelu<br>Bufet 7:30–10:00 — dziś bez pobudki o świcie, spokojne śniadanie przed wyjściem (godziny potwierdzić w recepcji).<br><br><b>10:15</b> — Wyjazd z hotelu<br>Mercedes Sprinter madeira-in; przejazd na płaskowyż przez Santanę, ok. godziny drogi. Rekomendowana godzina wyjazdu: ok. 08:30 dla chętnych na czystsze niebo na szczycie — cała agenda przesuwa się wtedy o ~1,5 h wcześniej (chmury narastają w ciągu dnia).]]></description><styleUrl>#d22</styleUrl><Point><coordinates>-16.9353,32.6384,0</coordinates></Point></Placemark>

    <Placemark><name>Trasa 22 sierpnia · sobota</name><styleUrl>#d22</styleUrl><LineString><tessellate>1</tessellate><coordinates>-16.9353,32.6384,0 -16.911,32.7573,0 -16.9419,32.7583,0 -16.8819,32.8036,0 -16.8865,32.7353,0 -16.8905,32.7419,0 -16.9353,32.6384,0</coordinates></LineString></Placemark>

  </Folder>
  <Folder><name>4 · 23 i 25.08 Funchal na luzie</name>
    <Placemark><name>Hotel Baía Azul</name><description><![CDATA[<b>23 sierpnia · niedziela · Luźny dzień w Funchal</b><br>Basen i Lido, a do wyboru snorkeling albo Stare Miasto.<hr><b>rano</b> — Śniadanie w hotelu bez budzika<br>Bufet w hotelu do 10:00 — dziś bez pośpiechu, jeden wolniejszy poranek między aktywnymi dniami.]]></description><styleUrl>#d23</styleUrl><Point><coordinates>-16.9353,32.6384,0</coordinates></Point></Placemark>

    <Placemark><name>Lido</name><description><![CDATA[<b>23 sierpnia · niedziela · Luźny dzień w Funchal</b><br>Basen i Lido, a do wyboru snorkeling albo Stare Miasto.<hr><b>10:15</b> — Lido i kąpiel<br>Baseny oceaniczne; chętni mogą wypożyczyć sprzęt do snorkelingu przy skalistym brzegu.]]></description><styleUrl>#d23</styleUrl><Point><coordinates>-16.9332,32.6386,0</coordinates></Point></Placemark>

    <Placemark><name>Stare Miasto — opcjonalnie</name><description><![CDATA[<b>23 sierpnia · niedziela · Luźny dzień w Funchal</b><br>Basen i Lido, a do wyboru snorkeling albo Stare Miasto.<hr><b>15:30</b> — Stare Miasto dla chętnych<br>Spacer po Rua de Santa Maria, pomalowane drzwi i kawiarnie — dla tych, którzy nie chcą siedzieć w miejscu.]]></description><styleUrl>#d23</styleUrl><Point><coordinates>-16.9033,32.6484,0</coordinates></Point></Placemark>

    <Placemark><name>Hotel</name><description><![CDATA[<b>23 sierpnia · niedziela · Luźny dzień w Funchal</b><br>Basen i Lido, a do wyboru snorkeling albo Stare Miasto.<hr><b>rano</b> — Śniadanie w hotelu bez budzika<br>Bufet w hotelu do 10:00 — dziś bez pośpiechu, jeden wolniejszy poranek między aktywnymi dniami.]]></description><styleUrl>#d23</styleUrl><Point><coordinates>-16.9353,32.6384,0</coordinates></Point></Placemark>

    <Placemark><name>Trasa 23 sierpnia · niedziela</name><styleUrl>#d23</styleUrl><LineString><tessellate>1</tessellate><coordinates>-16.9353,32.6384,0 -16.9332,32.6386,0 -16.9033,32.6484,0 -16.9353,32.6384,0</coordinates></LineString></Placemark>

    <Placemark><name>Hotel</name><description><![CDATA[<b>25 sierpnia · wtorek · Funchal po swojemu</b><br>Ogród, zakupy albo Monte, a wieczorem kolacja z espetadą.<hr><b>08:30</b> — Śniadanie w hotelu<br>Bufet śniadaniowy w hotelu, zwykle 7:30–10:00 (godziny potwierdzić w recepcji).<br><br><b>16:00</b> — Hotel i basen<br>Popołudniowa regeneracja przed wieczornym wyjściem.]]></description><styleUrl>#d23</styleUrl><Point><coordinates>-16.9353,32.6384,0</coordinates></Point></Placemark>

    <Placemark><name>Ogród botaniczny</name><description><![CDATA[<b>25 sierpnia · wtorek · Funchal po swojemu</b><br>Ogród, zakupy albo Monte, a wieczorem kolacja z espetadą.<hr><b>10:15</b> — Wybór wariantu<br>Ogród botaniczny albo centrum, zakupy i spokojna kawiarnia.]]></description><styleUrl>#d23</styleUrl><Point><coordinates>-16.8946,32.6624,0</coordinates></Point></Placemark>

    <Placemark><name>Centrum Funchal</name><description><![CDATA[<b>25 sierpnia · wtorek · Funchal po swojemu</b><br>Ogród, zakupy albo Monte, a wieczorem kolacja z espetadą.<hr><b>10:15</b> — Wybór wariantu<br>Ogród botaniczny albo centrum, zakupy i spokojna kawiarnia.]]></description><styleUrl>#d23</styleUrl><Point><coordinates>-16.908,32.6496,0</coordinates></Point></Placemark>

    <Placemark><name>Monte — opcjonalnie</name><description><![CDATA[<b>25 sierpnia · wtorek · Funchal po swojemu</b><br>Ogród, zakupy albo Monte, a wieczorem kolacja z espetadą.<hr><b>14:30</b> — Monte tylko dla chętnych<br>Kolejka i wysokość są całkowicie opcjonalne.]]></description><styleUrl>#d23</styleUrl><Point><coordinates>-16.9022,32.675,0</coordinates></Point></Placemark>

    <Placemark><name>Kolacja z espetadą — Stare Miasto</name><description><![CDATA[<b>25 sierpnia · wtorek · Funchal po swojemu</b><br>Ogród, zakupy albo Monte, a wieczorem kolacja z espetadą.<hr><b>19:30</b> — Kolacja z espetadą<br>Polędwica wołowa ze szpady (espetada madeirense) grillowana na lauru, podawana z bolo do caco i milho frito. Restauracja w Starym Mieście albo w Câmara de Lobos; rodzinny stół, dzieciom zwykle smakuje.]]></description><styleUrl>#d23</styleUrl><Point><coordinates>-16.9033,32.6484,0</coordinates></Point></Placemark>

    <Placemark><name>Hotel</name><description><![CDATA[<b>25 sierpnia · wtorek · Funchal po swojemu</b><br>Ogród, zakupy albo Monte, a wieczorem kolacja z espetadą.<hr><b>08:30</b> — Śniadanie w hotelu<br>Bufet śniadaniowy w hotelu, zwykle 7:30–10:00 (godziny potwierdzić w recepcji).<br><br><b>16:00</b> — Hotel i basen<br>Popołudniowa regeneracja przed wieczornym wyjściem.]]></description><styleUrl>#d23</styleUrl><Point><coordinates>-16.9353,32.6384,0</coordinates></Point></Placemark>

    <Placemark><name>Trasa 25 sierpnia · wtorek</name><styleUrl>#d23</styleUrl><LineString><tessellate>1</tessellate><coordinates>-16.9353,32.6384,0 -16.8946,32.6624,0 -16.908,32.6496,0 -16.9022,32.675,0 -16.9033,32.6484,0 -16.9353,32.6384,0</coordinates></LineString></Placemark>

  </Folder>
  <Folder><name>5 · 24.08 Zachód Madery</name>
    <Placemark><name>Hotel</name><description><![CDATA[<b>24 sierpnia · poniedziałek · Zachód Madery</b><br>Nadmorskie wioski, Porto Moniz i zamglony las Fanal.<hr><b>08:15</b> — Śniadanie w hotelu<br>Bufet 7:30–10:00 — zjeść przed wyjazdem o 10:15 (godziny potwierdzić w recepcji).<br><br><b>18:00</b> — Powrót do hotelu<br>Cabo Girão można dołożyć dla chętnych po drodze.]]></description><styleUrl>#d24</styleUrl><Point><coordinates>-16.9353,32.6384,0</coordinates></Point></Placemark>

    <Placemark><name>Câmara de Lobos</name><description><![CDATA[<b>24 sierpnia · poniedziałek · Zachód Madery</b><br>Nadmorskie wioski, Porto Moniz i zamglony las Fanal.<hr><b>10:15</b> — Câmara de Lobos<br>Spacer przy porcie rybackim i rodzinne zdjęcie.]]></description><styleUrl>#d24</styleUrl><Point><coordinates>-16.9769,32.6496,0</coordinates></Point></Placemark>

    <Placemark><name>Ribeira Brava</name><description><![CDATA[<b>24 sierpnia · poniedziałek · Zachód Madery</b><br>Nadmorskie wioski, Porto Moniz i zamglony las Fanal.<hr><b>11:15</b> — Ribeira Brava<br>Kawa, toaleta i krótki przystanek przed północnym wybrzeżem.]]></description><styleUrl>#d24</styleUrl><Point><coordinates>-17.0633,32.6747,0</coordinates></Point></Placemark>

    <Placemark><name>Seixal</name><description><![CDATA[<b>24 sierpnia · poniedziałek · Zachód Madery</b><br>Nadmorskie wioski, Porto Moniz i zamglony las Fanal.<hr><b>12:15</b> — Seixal<br>Czarna piaszczysta plaża i punkt widokowy na klifowe wybrzeże.]]></description><styleUrl>#d24</styleUrl><Point><coordinates>-17.1038,32.8126,0</coordinates></Point></Placemark>

    <Placemark><name>Porto Moniz</name><description><![CDATA[<b>24 sierpnia · poniedziałek · Zachód Madery</b><br>Nadmorskie wioski, Porto Moniz i zamglony las Fanal.<hr><b>13:15</b> — Porto Moniz<br>Lunch przy naturalnych basenach lawowych; kąpiel przy dobrych warunkach morza.]]></description><styleUrl>#d24</styleUrl><Point><coordinates>-17.1667,32.8663,0</coordinates></Point></Placemark>

    <Placemark><name>Fanal — zamglony las</name><description><![CDATA[<b>24 sierpnia · poniedziałek · Zachód Madery</b><br>Nadmorskie wioski, Porto Moniz i zamglony las Fanal.<hr><b>15:15</b> — Fanal — zamglony las<br>Starodawny las laurowy na płaskowyżu Paúl da Serra: sędziwe, poskręcane drzewa ostrokrzewu spowite mgłą. Krótki spacer po miękkiej łące między drzewami — najbardziej klimatyczne miejsce dnia.]]></description><styleUrl>#d24</styleUrl><Point><coordinates>-17.1436,32.8097,0</coordinates></Point></Placemark>

    <Placemark><name>Hotel</name><description><![CDATA[<b>24 sierpnia · poniedziałek · Zachód Madery</b><br>Nadmorskie wioski, Porto Moniz i zamglony las Fanal.<hr><b>08:15</b> — Śniadanie w hotelu<br>Bufet 7:30–10:00 — zjeść przed wyjazdem o 10:15 (godziny potwierdzić w recepcji).<br><br><b>18:00</b> — Powrót do hotelu<br>Cabo Girão można dołożyć dla chętnych po drodze.]]></description><styleUrl>#d24</styleUrl><Point><coordinates>-16.9353,32.6384,0</coordinates></Point></Placemark>

    <Placemark><name>Trasa 24 sierpnia · poniedziałek</name><styleUrl>#d24</styleUrl><LineString><tessellate>1</tessellate><coordinates>-16.9353,32.6384,0 -16.9769,32.6496,0 -17.0633,32.6747,0 -17.1038,32.8126,0 -17.1667,32.8663,0 -17.1436,32.8097,0 -16.9353,32.6384,0</coordinates></LineString></Placemark>

  </Folder>
  <Folder><name>6 · 26.08 Curral das Freiras</name>
    <Placemark><name>Hotel</name><description><![CDATA[<b>26 sierpnia · środa · Curral das Freiras</b><br>Pół dnia w Dolinie Zakonnic, spokojne widoki i lunch.<hr><b>08:15</b> — Śniadanie w hotelu<br>Bufet 7:30–10:00 — zjeść przed wyjazdem o 10:15 (godziny potwierdzić w recepcji).<br><br><b>15:30</b> — Powrót do hotelu<br>Popołudnie na basenie lub krótka promenada.]]></description><styleUrl>#d26</styleUrl><Point><coordinates>-16.9353,32.6384,0</coordinates></Point></Placemark>

    <Placemark><name>Eira do Serrado</name><description><![CDATA[<b>26 sierpnia · środa · Curral das Freiras</b><br>Pół dnia w Dolinie Zakonnic, spokojne widoki i lunch.<hr><b>11:00</b> — Eira do Serrado<br>Krótkie podejście do komfortowego punktu widokowego; kijki i przerwy według potrzeby.<br><br><b>12:15</b> — Curral das Freiras<br>Spacer 2–3 km po miejscowości i spokojny lunch.]]></description><styleUrl>#d26</styleUrl><Point><coordinates>-16.9615,32.7107,0</coordinates></Point></Placemark>

    <Placemark><name>Curral das Freiras</name><description><![CDATA[<b>26 sierpnia · środa · Curral das Freiras</b><br>Pół dnia w Dolinie Zakonnic, spokojne widoki i lunch.<hr><b>12:15</b> — Curral das Freiras<br>Spacer 2–3 km po miejscowości i spokojny lunch.]]></description><styleUrl>#d26</styleUrl><Point><coordinates>-16.9691,32.7202,0</coordinates></Point></Placemark>

    <Placemark><name>Hotel</name><description><![CDATA[<b>26 sierpnia · środa · Curral das Freiras</b><br>Pół dnia w Dolinie Zakonnic, spokojne widoki i lunch.<hr><b>08:15</b> — Śniadanie w hotelu<br>Bufet 7:30–10:00 — zjeść przed wyjazdem o 10:15 (godziny potwierdzić w recepcji).<br><br><b>15:30</b> — Powrót do hotelu<br>Popołudnie na basenie lub krótka promenada.]]></description><styleUrl>#d26</styleUrl><Point><coordinates>-16.9353,32.6384,0</coordinates></Point></Placemark>

    <Placemark><name>Trasa 26 sierpnia · środa</name><styleUrl>#d26</styleUrl><LineString><tessellate>1</tessellate><coordinates>-16.9353,32.6384,0 -16.9615,32.7107,0 -16.9691,32.7202,0 -16.9353,32.6384,0</coordinates></LineString></Placemark>

  </Folder>
  <Folder><name>7 · 27.08 Rabaçal i 25 Fontes</name>
    <Placemark><name>Hotel</name><description><![CDATA[<b>27 sierpnia · czwartek · Rabaçal, 25 Fontes i południowy zachód</b><br>Levada das 25 Fontes w Rabaçal, plaża w Calhecie i bananowce.<hr><b>08:15</b> — Śniadanie w hotelu<br>Bufet 7:30–10:00 — spokojne śniadanie przed wyjazdem (godziny potwierdzić w recepcji).<br><br><b>10:15</b> — Wyjazd z hotelu<br>Aktywny dzień na zachodzie; przejazd na płaskowyż Rabaçal, ok. godziny drogi.]]></description><styleUrl>#d27</styleUrl><Point><coordinates>-16.9353,32.6384,0</coordinates></Point></Placemark>

    <Placemark><name>Rabaçal — Levada das 25 Fontes</name><description><![CDATA[<b>27 sierpnia · czwartek · Rabaçal, 25 Fontes i południowy zachód</b><br>Levada das 25 Fontes w Rabaçal, plaża w Calhecie i bananowce.<hr><b>10:15</b> — Wyjazd z hotelu<br>Aktywny dzień na zachodzie; przejazd na płaskowyż Rabaçal, ok. godziny drogi.<br><br><b>11:15</b> — Rabaçal — Levada das 25 Fontes<br>Sztandarowa trasa dnia: levada wśród lasu laurowego do laguny zasilanej dwudziestoma pięcioma źródłami. Około 8 km w obie strony, w większości płasko; idziemy w swoim tempie. Levadę do Risco (odsłonięte klify) pomijamy.]]></description><styleUrl>#d27</styleUrl><Point><coordinates>-17.1313,32.7586,0</coordinates></Point></Placemark>

    <Placemark><name>Plaża Calheta</name><description><![CDATA[<b>27 sierpnia · czwartek · Rabaçal, 25 Fontes i południowy zachód</b><br>Levada das 25 Fontes w Rabaçal, plaża w Calhecie i bananowce.<hr><b>14:15</b> — Calheta — plaża i lunch<br>Nagroda po spacerze: piaszczysta plaża i lunch przy oceanie.]]></description><styleUrl>#d27</styleUrl><Point><coordinates>-17.1775,32.7219,0</coordinates></Point></Placemark>

    <Placemark><name>Bananowce — Madalena do Mar</name><description><![CDATA[<b>27 sierpnia · czwartek · Rabaçal, 25 Fontes i południowy zachód</b><br>Levada das 25 Fontes w Rabaçal, plaża w Calhecie i bananowce.<hr><b>15:45</b> — Bananowce w Madalena do Mar<br>Krótki przystanek wśród plantacji — dzieci zobaczą, jak rosną banany, i spróbują owoców prosto z krzaka. Kilka kilometrów dalej, w Lugar de Baixo, jest BAM — Muzeum Bananów (czynne do 18:00) ze zwiedzaniem plantacji doświadczalnej i filmem 4D; do rozważenia zamiast postoju przy krzakach albo obok niego.]]></description><styleUrl>#d27</styleUrl><Point><coordinates>-17.1276,32.7031,0</coordinates></Point></Placemark>

    <Placemark><name>Ponta do Sol</name><description><![CDATA[<b>27 sierpnia · czwartek · Rabaçal, 25 Fontes i południowy zachód</b><br>Levada das 25 Fontes w Rabaçal, plaża w Calhecie i bananowce.<hr><b>16:30</b> — Ponta do Sol<br>Lody i spacer przy oceanie w najbardziej słonecznym zakątku wyspy, w drodze powrotnej.]]></description><styleUrl>#d27</styleUrl><Point><coordinates>-17.1045,32.6819,0</coordinates></Point></Placemark>

    <Placemark><name>Hotel</name><description><![CDATA[<b>27 sierpnia · czwartek · Rabaçal, 25 Fontes i południowy zachód</b><br>Levada das 25 Fontes w Rabaçal, plaża w Calhecie i bananowce.<hr><b>08:15</b> — Śniadanie w hotelu<br>Bufet 7:30–10:00 — spokojne śniadanie przed wyjazdem (godziny potwierdzić w recepcji).<br><br><b>10:15</b> — Wyjazd z hotelu<br>Aktywny dzień na zachodzie; przejazd na płaskowyż Rabaçal, ok. godziny drogi.]]></description><styleUrl>#d27</styleUrl><Point><coordinates>-16.9353,32.6384,0</coordinates></Point></Placemark>

    <Placemark><name>Trasa 27 sierpnia · czwartek</name><styleUrl>#d27</styleUrl><LineString><tessellate>1</tessellate><coordinates>-16.9353,32.6384,0 -17.1313,32.7586,0 -17.1775,32.7219,0 -17.1276,32.7031,0 -17.1045,32.6819,0 -16.9353,32.6384,0</coordinates></LineString></Placemark>

  </Folder>
  <Folder><name>8 · 28.08 Rejs</name>
    <Placemark><name>Hotel Baía Azul</name><description><![CDATA[<b>28 sierpnia · piątek · Rejs: delfiny i wieloryby</b><br>Główny punkt dnia: rodzinny rejs obserwacyjny z odpoczynkiem po powrocie.<hr><b>08:00</b> — Śniadanie w hotelu<br>Bufet 7:30–10:00 — lekki posiłek i nawodnienie przed rejsem (godziny potwierdzić w recepcji).<br><br><b>14:00</b> — Lekki lunch i odpoczynek<br>Po rejsie wracamy do hotelu; bez dokładania kolejnej atrakcji.]]></description><styleUrl>#d28</styleUrl><Point><coordinates>-16.9353,32.6384,0</coordinates></Point></Placemark>

    <Placemark><name>Marina w Funchal</name><description><![CDATA[<b>28 sierpnia · piątek · Rejs: delfiny i wieloryby</b><br>Główny punkt dnia: rodzinny rejs obserwacyjny z odpoczynkiem po powrocie.]]></description><styleUrl>#d28</styleUrl><Point><coordinates>-16.9096,32.6454,0</coordinates></Point></Placemark>

    <Placemark><name>Obszar obserwacji na oceanie</name><description><![CDATA[<b>28 sierpnia · piątek · Rejs: delfiny i wieloryby</b><br>Główny punkt dnia: rodzinny rejs obserwacyjny z odpoczynkiem po powrocie.]]></description><styleUrl>#d28</styleUrl><Point><coordinates>-17.03,32.62,0</coordinates></Point></Placemark>

    <Placemark><name>Powrót do mariny</name><description><![CDATA[<b>28 sierpnia · piątek · Rejs: delfiny i wieloryby</b><br>Główny punkt dnia: rodzinny rejs obserwacyjny z odpoczynkiem po powrocie.]]></description><styleUrl>#d28</styleUrl><Point><coordinates>-16.9096,32.6454,0</coordinates></Point></Placemark>

    <Placemark><name>Hotel</name><description><![CDATA[<b>28 sierpnia · piątek · Rejs: delfiny i wieloryby</b><br>Główny punkt dnia: rodzinny rejs obserwacyjny z odpoczynkiem po powrocie.<hr><b>08:00</b> — Śniadanie w hotelu<br>Bufet 7:30–10:00 — lekki posiłek i nawodnienie przed rejsem (godziny potwierdzić w recepcji).<br><br><b>14:00</b> — Lekki lunch i odpoczynek<br>Po rejsie wracamy do hotelu; bez dokładania kolejnej atrakcji.]]></description><styleUrl>#d28</styleUrl><Point><coordinates>-16.9353,32.6384,0</coordinates></Point></Placemark>

    <Placemark><name>Trasa 28 sierpnia · piątek</name><styleUrl>#d28</styleUrl><LineString><tessellate>1</tessellate><coordinates>-16.9353,32.6384,0 -16.9096,32.6454,0 -17.03,32.62,0 -16.9096,32.6454,0 -16.9353,32.6384,0</coordinates></LineString></Placemark>

  </Folder>
  <Folder><name>9 · 29.08 Dzień rezerwowy</name>
    <Placemark><name>Hotel</name><description><![CDATA[<b>29 sierpnia · sobota · Dzień rezerwowy</b><br>Machico, Funchal, Caminho Real na południowym zachodzie albo powrót do ulubionego miejsca.<hr><b>08:00</b> — Śniadanie w hotelu<br>Bufet śniadaniowy w hotelu, zwykle 7:30–10:00 (godziny potwierdzić w recepcji).]]></description><styleUrl>#d29</styleUrl><Point><coordinates>-16.9353,32.6384,0</coordinates></Point></Placemark>

    <Placemark><name>Marina — termin zapasowy rejsu</name><description><![CDATA[<b>29 sierpnia · sobota · Dzień rezerwowy</b><br>Machico, Funchal, Caminho Real na południowym zachodzie albo powrót do ulubionego miejsca.]]></description><styleUrl>#d29</styleUrl><Point><coordinates>-16.9096,32.6454,0</coordinates></Point></Placemark>

    <Placemark><name>Wariant: Machico</name><description><![CDATA[<b>29 sierpnia · sobota · Dzień rezerwowy</b><br>Machico, Funchal, Caminho Real na południowym zachodzie albo powrót do ulubionego miejsca.]]></description><styleUrl>#d29</styleUrl><Point><coordinates>-16.7653,32.7163,0</coordinates></Point></Placemark>

    <Placemark><name>Wariant: Funchal</name><description><![CDATA[<b>29 sierpnia · sobota · Dzień rezerwowy</b><br>Machico, Funchal, Caminho Real na południowym zachodzie albo powrót do ulubionego miejsca.]]></description><styleUrl>#d29</styleUrl><Point><coordinates>-16.908,32.6496,0</coordinates></Point></Placemark>

    <Placemark><name>Wariant SW: Caminho Real (Paúl do Mar)</name><description><![CDATA[<b>29 sierpnia · sobota · Dzień rezerwowy</b><br>Machico, Funchal, Caminho Real na południowym zachodzie albo powrót do ulubionego miejsca.<hr><b>10:15</b> — Machico<br>Plaża i płaska promenada — wariant, jeśli rejs odbył się poprzedniego dnia.<br><br><b>10:15</b> — Caminho Real do Paúl do Mar<br>Wariant SW dla chętnych na historyczną, wykutą w klifie królewską drogę (PR19). Domyślnie bezpiecznie: górny punkt widokowy z Prazeres na zygzak schodzący do morza i widok na Jardim do Mar. Pełny, stromy zjazd ~500 m (ok. 1,5 h) tylko dla chętnych — bus odbiera na dole w Paúl do Mar; osoba z lękiem wysokości i najmłodsze zostają przy górnym punkcie.]]></description><styleUrl>#d29</styleUrl><Point><coordinates>-17.2258,32.7472,0</coordinates></Point></Placemark>

    <Placemark><name>Hotel</name><description><![CDATA[<b>29 sierpnia · sobota · Dzień rezerwowy</b><br>Machico, Funchal, Caminho Real na południowym zachodzie albo powrót do ulubionego miejsca.<hr><b>08:00</b> — Śniadanie w hotelu<br>Bufet śniadaniowy w hotelu, zwykle 7:30–10:00 (godziny potwierdzić w recepcji).]]></description><styleUrl>#d29</styleUrl><Point><coordinates>-16.9353,32.6384,0</coordinates></Point></Placemark>

    <Placemark><name>Trasa 29 sierpnia · sobota</name><styleUrl>#d29</styleUrl><LineString><tessellate>1</tessellate><coordinates>-16.9353,32.6384,0 -16.9096,32.6454,0 -16.7653,32.7163,0 -16.908,32.6496,0 -17.2258,32.7472,0 -16.9353,32.6384,0</coordinates></LineString></Placemark>

  </Folder>
  <Folder><name>10 · Gdzie zjeść (Makłowicz)</name>
    <Placemark><name>Quinta do Furão — Santana</name><description><![CDATA[Restauracja na klifie wśród winnic. Lunch 22.08 po Pico Ruivo. Rezerwować z wyprzedzeniem.]]></description><styleUrl>#food</styleUrl><Point><coordinates>-16.8849293,32.824085,0</coordinates></Point></Placemark>

    <Placemark><name>Snack Bar Estoril — São Vicente</name><description><![CDATA[Prego w bolo do caco, przy kościele. Opcja 24.08.<br><i>Punkt na ulicy Rua do Cemitério — dokładny lokal przy kościele.</i>]]></description><styleUrl>#food</styleUrl><Point><coordinates>-17.0470154,32.804239,0</coordinates></Point></Placemark>

    <Placemark><name>Peixaria no Mercado — Funchal</name><description><![CDATA[Świeża ryba przy Mercado dos Lavradores. Czynne 11:00–22:30, mała sala — rezerwować.]]></description><styleUrl>#food</styleUrl><Point><coordinates>-16.9040848,32.6485238,0</coordinates></Point></Placemark>

    <Placemark><name>BAM — Muzeum Bananów</name><description><![CDATA[Lugar de Baixo, przy VE3. Codziennie 9:00–18:00. Na trasie 27.08 między Madaleną do Mar a Ponta do Sol.<br><i>Punkt orientacyjny — muzeum nie jest jeszcze w OpenStreetMap.</i>]]></description><styleUrl>#food</styleUrl><Point><coordinates>-17.0874635,32.6796274,0</coordinates></Point></Placemark>

    <Placemark><name>Fábrica Santo António — Funchal</name><description><![CDATA[Manufaktura z 1893 r. Bolo de mel i biszkopty. Pon.–pt. 9:00–19:00, sob. 9:00–13:00, niedz. nieczynne.]]></description><styleUrl>#food</styleUrl><Point><coordinates>-16.9074118,32.6496531,0</coordinates></Point></Placemark>

    <Placemark><name>UauCacau — Mercado dos Lavradores</name><description><![CDATA[Czekolada z maracui, ponchy i miodu trzcinowego. Lokal 19 na targu.]]></description><styleUrl>#food</styleUrl><Point><coordinates>-16.9035111,32.6486889,0</coordinates></Point></Placemark>

    <Placemark><name>Engenhos do Norte — Porto da Cruz</name><description><![CDATA[Gorzelnia z 1927 r., jedyny w Europie parowy młyn trzcinowy. Wstęp wolny. Poza naszą trasą.]]></description><styleUrl>#food</styleUrl><Point><coordinates>-16.8281286,32.7739618,0</coordinates></Point></Placemark>

  </Folder>
</Document></kml>